0 FENGYUN 1C DEB
1 30841U 99025AWB 13281.06315769  .00001048  00000-0  14142-2 0  8225
2 30841 098.7458 317.3830 0367763 131.0071 232.3481 13.36832792322339
0 FENGYUN 1C DEB
1 30841U 99025AWB 13284.05692389  .00001170  00000-0  15735-2 0  8239
2 30841 098.7454 319.9602 0367531 123.5362 240.1443 13.36841239322737
0 FENGYUN 1C DEB
1 30841U 99025AWB 13286.07769911  .00001055  00000-0  14238-2 0  8249
2 30841 098.7448 321.6998 0367367 118.4865 245.3779 13.36845725323000
0 FENGYUN 1C DEB
1 30841U 99025AWB 13288.32298850  .00001453  00000-0  19448-2 0  8259
2 30841 098.7445 323.6326 0367174 112.8726 251.1606 13.36852489323306
0 FENGYUN 1C DEB
1 30841U 99025AWB 13290.34373252  .00001201  00000-0  16162-2 0  8266
2 30841 098.7440 325.3719 0366966 107.8204 256.3310 13.36858205323579
0 FENGYUN 1C DEB
1 30841U 99025AWB 13292.58898569  .00001279  00000-0  17177-2 0  8270
2 30841 098.7439 327.3042 0366872 102.2011 262.0454 13.36863346323877
0 FENGYUN 1C DEB
1 30841U 99025AWB 13294.60969808  .00001353  00000-0  18152-2 0  8288
2 30841 098.7441 329.0433 0366681 097.1430 267.1534 13.36868932324140
